CHUANGXIN 1-02 (CX-1-02)
1 33434U 08056B   26182.98964354 -.00000139  00000+0 -36936-4 0  9998
2 33434  98.6126 209.1083 0015495  96.0972 264.1976 14.30155427920739
STARS (KUKAI)           
1 33498U 09002G   26182.26702292  .00005274  00000+0  47717-3 0  9993
2 33498  98.1554 130.1510 0010126 118.6113 241.6126 14.95844453940588
KKS-1 (KISEKI)          
1 33499U 09002H   26182.89659567  .00001454  00000+0  18499-3 0  9990
2 33499  98.1183 105.5719 0006524 237.6468 122.4114 14.83161466938376
UK-DMC 2                
1 35683U 09041C   26182.93608848  .00000854  00000+0  13098-3 0  9994
2 35683  97.8854 317.5430 0001245  95.0482 265.0870 14.76077415908749
OCEANSAT-2              
1 35931U 09051A   26182.92565464 -.00000229  00000+0 -13116-3 0  9995
2 35931  98.2318 168.3060 0016418 192.1445 167.9328 13.99659482881395
SWISSCUBE               
1 35932U 09051B   26182.67303243  .00001045  00000+0  21581-3 0  9993
2 35932  98.4025  90.8133 0007016 156.6940 203.4580 14.62508928891275
BEESAT-1                
1 35933U 09051C   26182.96382967  .00000892  00000+0  18880-3 0  9993
2 35933  98.3951  90.7133 0005241 166.7581 193.3758 14.61744129891349
ITUPSAT1                
1 35935U 09051E   26182.28254693  .00000863  00000+0  18802-3 0  9996
2 35935  98.4035  89.1986 0007070 185.0409 175.0721 14.60461628890792
DMSP 5D-3 F18 (USA 210) 
1 35951U 09057A   26182.92068011  .00000260  00000+0  15748-3 0  9995
2 35951  98.9044 163.6582 0010448 203.7913 156.2778 14.14905043861677
PROBA-2                 
1 36037U 09059B   26182.75209676  .00000195  00000+0  55890-4 0  9998
2 36037  98.2453   5.9031 0012197 232.3480 127.6611 14.54868696883642
YAOGAN-7                
1 36110U 09069A   26182.91488795  .00000530  00000+0  80423-4 0  9993
2 36110  98.0052  68.6898 0024500 355.2314   4.8659 14.78024701891808
XIWANG-1 (HOPE-1)       
1 36122U 09072B   26182.91171113  .00000366  00000+0  10746-2 0  9999
2 36122 100.4032 136.5094 0007172 195.5414 164.5480 13.16441276794946
COSMOS 2463             
1 36519U 10017A   26182.65440441  .00000057  00000+0  46228-4 0  9997
2 36519  82.9594 239.0769 0037610  90.1387  75.5510 13.71666531809913
CARTOSAT-2B             
1 36795U 10035A   26182.95637575  .00000350  00000+0  54937-4 0  9994
2 36795  97.9946 233.4116 0012009 137.6210 222.5931 14.78600942862032
TISAT 1                 
1 36799U 10035E   26182.81342010  .00025312  00000+0  81329-3 0  9999
2 36799  98.0711 130.6661 0003297 144.1100 216.0362 15.32268645869945
YAOGAN-10               
1 36834U 10038A   26182.97432201  .00001854  00000+0  22153-3 0  9996
2 36834  97.8966 206.2603 0001708  87.0765   1.0780 14.85393795859405
SHIJIAN-6 04B (SJ-6 04B)
1 37180U 10051B   26182.97217854  .00001718  00000+0  14547-3 0  9998
2 37180  97.8715 188.5373 0006838 260.4539  99.5911 14.99361658857890
FENGYUN 3B              
1 37214U 10059A   26183.01372144 -.00000425  00000+0 -19620-3 0  9997
2 37214  98.9611 229.0905 0022704 142.3810 281.1872 14.14842655809527
COSMO-SKYMED 4          
1 37216U 10060A   26182.95851389  .00000780  00000+0  10455-3 0  9995
2 37216  97.8883   6.3441 0001482  82.7093 277.4289 14.82159043846752
O/OREOS (USA 219)       
1 37224U 10062C   26182.32648406  .00002639  00000+0  25408-3 0  9990
2 37224  71.9707  48.3104 0013166  32.9496 327.2493 14.93804016118759
RESOURCESAT-2           
1 37387U 11015A   26182.93979507  .00000098  00000+0  64778-4 0  9996
2 37387  98.7639 250.2794 0010793 209.3896 150.6675 14.21603390788279
YOUTHSAT                
1 37388U 11015B   26182.89384332  .00000180  00000+0  93567-4 0  9998
2 37388  98.3691 156.2853 0013412 301.9045 112.8510 14.25636174789731
APRIZESAT 6             
1 37793U 11044F   26182.70696039  .00000879  00000+0  13088-3 0  9994
2 37793  98.2352  93.5024 0044051  40.8859 349.1550 14.76938675799290
JUGNU                   
1 37839U 11058B   26182.78363549  .00000389  00000+0  63587-4 0  9991
2 37839  19.9591 219.7499 0018348 237.3711 278.2214 14.13780252761097
SRMSAT                  
1 37841U 11058D   26182.77623690  .00000384  00000+0  64524-4 0  9996
2 37841  19.9733 331.1680 0011804   4.9086  23.3871 14.11578614759889
